NORAD_CAT_ID,OBJECT_NAME,OBJECT_TYPE,EPOCH,MEAN_MOTION,ECCENTRICITY,INCLINATION,RA_OF_ASC_NODE,ARG_OF_PERICENTER,MEAN_ANOMALY,BSTAR,MEAN_MOTION_DOT,MEAN_MOTION_DDOT,TLE_LINE0,TLE_LINE1,TLE_LINE2,SEMIMAJOR_AXIS,PERIOD,APOGEE,PERIGEE,DECAYED
49164.0,STARLINK-3106,PAYLOAD,2023-08-23 00:08:41,14.98331053,0.0003114,69.9995,98.5273,272.1787,87.9015,-6.6835e-06,-1.73e-06,0.0,0 STARLINK-3106,1 49164U 21082AL  23235.00603907 -.00000173  00000-0 -66835-5 0  9993,2 49164  69.9995  98.5273 0003114 272.1787  87.9015 14.98331053108387,6950.19,96.107,574.219,569.89,0.0
49164.0,STARLINK-3106,PAYLOAD,2023-08-24 19:24:19,14.98328058,0.0003091,69.9995,93.9817,269.7681,90.3124,3.4851e-05,3.23e-06,0.0,0 STARLINK-3106,1 49164U 21082AL  23236.80855937  .00000323  00000-0  34851-4 0  9991,2 49164  69.9995  93.9817 0003091 269.7681  90.3124 14.98328058108659,6950.199,96.107,574.212,569.916,0.0
49164.0,STARLINK-3106,PAYLOAD,2023-08-25 00:12:43,14.98331753,0.0003095,69.9994,93.4768,270.0315,90.049,7.2974e-05,7.78e-06,0.0,0 STARLINK-3106,1 49164U 21082AL  23237.00883617  .00000778  00000-0  72974-4 0  9992,2 49164  69.9994  93.4768 0003095 270.0315  90.0490 14.98331753108683,6950.187,96.107,574.204,569.901,0.0
49164.0,STARLINK-3106,PAYLOAD,2023-08-25 21:02:28,14.98334257,0.0003098,69.9993,91.2884,270.218,89.8624,2.4228e-05,1.96e-06,0.0,0 STARLINK-3106,1 49164U 21082AL  23237.87671478  .00000196  00000-0  24228-4 0  9990,2 49164  69.9993  91.2884 0003098 270.2180  89.8624 14.98334257108814,6950.18,96.107,574.198,569.892,0.0
49164.0,STARLINK-3106,PAYLOAD,2023-08-26 00:14:44,14.98335978,0.0003105,69.9993,90.9518,270.2664,89.8139,4.099e-05,3.96e-06,0.0,0 STARLINK-3106,1 49164U 21082AL  23238.01023286  .00000396  00000-0  40990-4 0  9991,2 49164  69.9993  90.9518 0003105 270.2664  89.8139 14.98335978108834,6950.174,96.107,574.197,569.881,0.0
49164.0,STARLINK-3106,PAYLOAD,2023-08-26 13:03:48,14.98331455,0.0003038,69.9994,89.6052,273.9341,86.147,-1.34e-06,-1.09e-06,0.0,0 STARLINK-3106,1 49164U 21082AL  23238.54431693 -.00000109  00000-0 -13400-5 0  9995,2 49164  69.9994  89.6052 0003038 273.9341  86.1470 14.98331455108913,6950.188,96.107,574.165,569.942,0.0
49164.0,STARLINK-3106,PAYLOAD,2023-08-26 17:52:13,14.98330481,0.0003043,69.9993,89.1,273.1884,86.8927,-1.2528e-05,-2.42e-06,0.0,0 STARLINK-3106,1 49164U 21082AL  23238.74459757 -.00000242  00000-0 -12528-4 0  9995,2 49164  69.9993  89.1000 0003043 273.1884  86.8927 14.98330481108945,6950.191,96.107,574.171,569.941,0.0
49164.0,STARLINK-3106,PAYLOAD,2023-08-26 21:04:29,14.98330073,0.0003077,69.9994,88.7634,273.9015,86.1793,-1.5486e-05,-2.78e-06,0.0,0 STARLINK-3106,1 49164U 21082AL  23238.87811788 -.00000278  00000-0 -15486-4 0  9990,2 49164  69.9994  88.7634 0003077 273.9015  86.1793 14.98330073108968,6950.193,96.107,574.196,569.919,0.0
49164.0,STARLINK-3106,PAYLOAD,2023-08-27 00:16:45,14.98331848,0.0003077,69.9994,88.4267,273.6499,86.4308,3.9756e-06,-4.6e-07,0.0,0 STARLINK-3106,1 49164U 21082AL  23239.01163611 -.00000046  00000-0  39756-5 0  9991,2 49164  69.9994  88.4267 0003077 273.6499  86.4308 14.98331848108988,6950.187,96.107,574.191,569.914,0.0
49164.0,STARLINK-3106,PAYLOAD,2023-08-27 17:54:14,14.98331629,0.0003115,69.9993,86.5752,274.49,85.5903,9.9161e-06,2.5e-07,0.0,0 STARLINK-3106,1 49164U 21082AL  23239.74599551  .00000025  00000-0  99161-5 0  9999,2 49164  69.9993  86.5752 0003115 274.4900  85.5903 14.98331629109095,6950.188,96.107,574.218,569.888,0.0
49164.0,STARLINK-3106,PAYLOAD,2023-08-27 21:06:30,14.98332034,0.0003132,69.9992,86.2387,274.091,85.9891,1.2519e-05,5.6e-07,0.0,0 STARLINK-3106,1 49164U 21082AL  23239.87951500  .00000056  00000-0  12519-4 0  9994,2 49164  69.9992  86.2387 0003132 274.0910  85.9891 14.98332034109115,6950.187,96.107,574.228,569.875,0.0
49164.0,STARLINK-3106,PAYLOAD,2023-08-28 21:08:30,14.98331049,0.0003148,69.9991,83.714,270.6583,89.4215,5.5692e-05,5.72e-06,0.0,0 STARLINK-3106,1 49164U 21082AL  23240.88091318  .00000572  00000-0  55692-4 0  9991,2 49164  69.9991  83.7140 0003148 270.6583  89.4215 14.98331049109268,6950.19,96.107,574.243,569.867,0.0
49164.0,STARLINK-3106,PAYLOAD,2023-08-28 22:44:38,14.98331625,0.0003147,69.9991,83.5456,270.7943,89.2855,6.0973e-05,6.35e-06,0.0,0 STARLINK-3106,1 49164U 21082AL  23240.94767264  .00000635  00000-0  60973-4 0  9996,2 49164  69.9991  83.5456 0003147 270.7943  89.2855 14.98331625109275,6950.188,96.107,574.24,569.866,0.0
49164.0,STARLINK-3106,PAYLOAD,2023-08-29 16:22:08,14.98328262,0.0003135,69.9991,81.6941,270.7632,89.3168,-1.9233e-05,-3.22e-06,0.0,0 STARLINK-3106,1 49164U 21082AL  23241.68203707 -.00000322  00000-0 -19233-4 0  9993,2 49164  69.9991  81.6941 0003135 270.7632  89.3168 14.98328262109388,6950.198,96.107,574.242,569.884,0.0
49164.0,STARLINK-3106,PAYLOAD,2023-08-29 19:34:24,14.98328114,0.0003141,69.9992,81.3574,270.8043,89.2756,-2.0019e-05,-3.32e-06,0.0,0 STARLINK-3106,1 49164U 21082AL  23241.81555729 -.00000332  00000-0 -20019-4 0  9997,2 49164  69.9992  81.3574 0003141 270.8043  89.2756 14.98328114109403,6950.199,96.107,574.247,569.881,0.0
49164.0,STARLINK-3106,PAYLOAD,2023-08-30 16:24:08,14.98329683,0.0003087,69.9993,79.169,269.8423,90.2383,3.4479e-05,3.18e-06,0.0,0 STARLINK-3106,1 49164U 21082AL  23242.68343476  .00000318  00000-0  34479-4 0  9994,2 49164  69.9993  79.1690 0003087 269.8423  90.2383 14.98329683109531,6950.194,96.107,574.204,569.913,0.0
49164.0,STARLINK-3106,PAYLOAD,2023-08-30 19:36:24,14.98331459,0.0003097,69.9993,78.8324,269.8746,90.2058,2.7363e-05,2.33e-06,0.0,0 STARLINK-3106,1 49164U 21082AL  23242.81695377  .00000233  00000-0  27363-4 0  9999,2 49164  69.9993  78.8324 0003097 269.8746  90.2058 14.98331459109555,6950.188,96.107,574.206,569.901,0.0
49164.0,STARLINK-3106,PAYLOAD,2023-09-01 19:40:26,14.98332372,0.0003131,69.9993,73.7823,269.989,90.091,3.5405e-05,3.29e-06,0.0,0 STARLINK-3106,1 49164U 21082AL  23244.81975190  .00000329  00000-0  35405-4 0  9997,2 49164  69.9993  73.7823 0003131 269.9890  90.0910 14.98332372109856,6950.186,96.107,574.227,569.874,0.0
49164.0,STARLINK-3106,PAYLOAD,2023-09-02 13:17:55,14.98331084,0.0003033,69.9987,71.9307,268.8658,91.2153,-9.6764e-06,-2.08e-06,0.0,0 STARLINK-3106,1 49164U 21082AL  23245.55411462 -.00000208  00000-0 -96764-5 0  9990,2 49164  69.9987  71.9307 0003033 268.8658  91.2153 14.98331084109960,6950.19,96.107,574.163,569.947,0.0
49164.0,STARLINK-3106,PAYLOAD,2023-09-02 19:42:27,14.98327241,0.0003153,69.9997,71.2577,270.4993,89.5805,9.9795e-05,1.098e-05,0.0,0 STARLINK-3106,1 49164U 21082AL  23245.82114991  .00001098  00000-0  99795-4 0  9999,2 49164  69.9997  71.2577 0003153 270.4993  89.5805 14.98327241110008,6950.201,96.107,574.258,569.875,0.0
49164.0,STARLINK-3106,PAYLOAD,2023-09-02 22:54:43,14.98332931,0.0003164,69.9995,70.9207,270.9489,89.1308,5.8345e-05,6.03e-06,0.0,0 STARLINK-3106,1 49164U 21082AL  23245.95466994  .00000603  00000-0  58345-4 0  9993,2 49164  69.9995  70.9207 0003164 270.9489  89.1308 14.98332931110027,6950.184,96.107,574.248,569.85,0.0
49164.0,STARLINK-3106,PAYLOAD,2023-09-03 05:19:15,14.98304308,0.0003069,70.0,70.2475,265.9411,94.1397,0.0004323,5.065e-05,0.0,0 STARLINK-3106,1 49164U 21082AL  23246.22170672  .00005065  00000-0  43230-3 0  9992,2 49164  70.0000  70.2475 0003069 265.9411  94.1397 14.98304308110065,6950.272,96.109,574.27,570.004,0.0
49164.0,STARLINK-3106,PAYLOAD,2023-09-03 11:43:47,14.98308861,0.0003067,70.0,69.5742,266.5813,93.4995,0.00038812,4.538e-05,0.0,0 STARLINK-3106,1 49164U 21082AL  23246.48874988  .00004538  00000-0  38812-3 0  9995,2 49164  70.0000  69.5742 0003067 266.5813  93.4995 14.98308861110103,6950.258,96.108,574.255,569.992,0.0
49164.0,STARLINK-3106,PAYLOAD,2023-09-03 22:56:44,14.98329611,0.0003072,70.0,68.3959,269.1128,90.9679,6.8446e-05,7.24e-06,0.0,0 STARLINK-3106,1 49164U 21082AL  23246.95607104  .00000724  00000-0  68446-4 0  9991,2 49164  70.0000  68.3959 0003072 269.1128  90.9679 14.98329611110178,6950.194,96.107,574.194,569.924,0.0
49164.0,STARLINK-3106,PAYLOAD,2023-09-04 11:45:49,14.98328038,0.0002755,70.0005,67.0493,263.6954,96.3891,2.9037e-05,2.53e-06,0.0,0 STARLINK-3106,1 49164U 21082AL  23247.49015289  .00000253  00000-0  29037-4 0  9998,2 49164  70.0005  67.0493 0002755 263.6954  96.3891 14.98328038110252,6950.199,96.107,573.979,570.149,0.0
49164.0,STARLINK-3106,PAYLOAD,2023-09-05 11:47:50,14.9832929,0.0002996,70.0007,64.5243,267.8087,92.2729,2.3694e-05,1.9e-06,0.0,0 STARLINK-3106,1 49164U 21082AL  23248.49155278  .00000190  00000-0  23694-4 0  9995,2 49164  70.0007  64.5243 0002996 267.8087  92.2729 14.98329290110402,6950.195,96.107,574.142,569.978,0.0
49164.0,STARLINK-3106,PAYLOAD,2023-09-06 11:49:51,14.98328681,0.0003151,70.0002,61.9988,268.4153,91.6645,5.7475e-05,5.93e-06,0.0,0 STARLINK-3106,1 49164U 21082AL  23249.49295189  .00000593  00000-0  57475-4 0  9993,2 49164  70.0002  61.9988 0003151 268.4153  91.6645 14.98328681110558,6950.197,96.107,574.252,569.872,0.0
49164.0,STARLINK-3106,PAYLOAD,2023-09-06 16:38:15,14.98330281,0.0003143,70.0001,61.4937,268.1859,91.894,7.1756e-05,7.63e-06,0.0,0 STARLINK-3106,1 49164U 21082AL  23249.69323057  .00000763  00000-0  71756-4 0  9998,2 49164  70.0001  61.4937 0003143 268.1859  91.8940 14.98330281110589,6950.192,96.107,574.241,569.873,0.0
49164.0,STARLINK-3106,PAYLOAD,2023-09-07 05:27:19,14.98331685,0.0003128,70.0005,60.1467,268.1227,91.9574,5.3013e-05,5.4e-06,0.0,0 STARLINK-3106,1 49164U 21082AL  23250.22730995  .00000540  00000-0  53013-4 0  9991,2 49164  70.0005  60.1467 0003128 268.1227  91.9574 14.98331685110661,6950.188,96.107,574.227,569.879,0.0
49164.0,STARLINK-3106,PAYLOAD,2023-09-07 16:40:16,14.98329798,0.0003122,70.0003,58.9684,267.9123,92.1679,2.1866e-05,1.68e-06,0.0,0 STARLINK-3106,1 49164U 21082AL  23250.69463207  .00000168  00000-0  21866-4 0  9998,2 49164  70.0003  58.9684 0003122 267.9123  92.1679 14.98329798110730,6950.194,96.107,574.228,569.889,0.0
